{
    "links": {
        "self": "http://www.neowsapp.com/rest/v1/neo/3797479?api_key=iIulBulltgU6a56xZRHN4H3l9WmuAYTsLGpBGhQ2"
    },
    "id": "3797479",
    "neo_reference_id": "3797479",
    "name": "(2018 AN3)",
    "designation": "2018 AN3",
    "nasa_jpl_url": "http://ssd.jpl.nasa.gov/sbdb.cgi?sstr=3797479",
    "absolute_magnitude_h": 24.6,
    "estimated_diameter": {
        "kilometers": {
            "estimated_diameter_min": 0.0319561887,
            "estimated_diameter_max": 0.0714562102
        },
        "meters": {
            "estimated_diameter_min": 31.9561886721,
            "estimated_diameter_max": 71.4562101727
        },
        "miles": {
            "estimated_diameter_min": 0.0198566489,
            "estimated_diameter_max": 0.0444008168
        },
        "feet": {
            "estimated_diameter_min": 104.8431420431,
            "estimated_diameter_max": 234.436392583
        }
    },
    "is_potentially_hazardous_asteroid": false,
    "close_approach_data": [
        {
            "close_approach_date": "2018-01-20",
            "close_approach_date_full": "2018-Jan-20 11:27",
            "epoch_date_close_approach": 1516447620000,
            "relative_velocity": {
                "kilometers_per_second": "8.2561731281",
                "kilometers_per_hour": "29722.2232610598",
                "miles_per_hour": "18468.2336701846"
            },
            "miss_distance": {
                "astronomical": "0.0708227",
                "lunar": "27.5500303",
                "kilometers": "10594925.067649",
                "miles": "6583381.1615962"
            },
            "orbiting_body": "Earth"
        }
    ],
    "orbital_data": {
        "orbit_id": "8",
        "orbit_determination_date": "2018-02-10 07:09:36",
        "first_observation_date": "2018-01-13",
        "last_observation_date": "2018-01-28",
        "data_arc_in_days": 15,
        "observations_used": 52,
        "orbit_uncertainty": "8",
        "minimum_orbit_intersection": ".0373223",
        "jupiter_tisserand_invariant": "3.202",
        "epoch_osculation": "2458135.5",
        "eccentricity": ".5903115394480638",
        "semi_major_axis": "2.497714947250173",
        "inclination": ".3773463362887627",
        "ascending_node_longitude": "39.05736625610518",
        "orbital_period": "1441.825612757017",
        "perihelion_distance": "1.023284991636484",
        "perihelion_argument": "99.3108298852504",
        "aphelion_distance": "3.972144902863862",
        "perihelion_time": "2458152.137676488583",
        "mean_anomaly": "355.8458474569356",
        "mean_motion": ".2496834546527569",
        "equinox": "J2000",
        "orbit_class": {
            "orbit_class_type": "AMO",
            "orbit_class_description": "Near-Earth asteroid orbits similar to that of 1221 Amor",
            "orbit_class_range": "1.017 AU < q (perihelion) < 1.3 AU"
        }
    },
    "is_sentry_object": false
}